IRIDIUM 39              
1 25042U 97069D   25273.07610825  .00001147  00000+0  29462-3 0  9990
2 25042  86.3975 166.2089 0016544 322.6483  37.3570 14.49354364464151
IRIDIUM 38              
1 25043U 97069E   25272.74407617  .00000959  00000+0  30958-3 0  9999
2 25043  86.4029 189.1986 0003990  98.7097 261.4553 14.38212123460988
IRIDIUM 42              
1 25077U 97077A   25273.01816497  .00000894  00000+0  29857-3 0  9990
2 25077  86.4031 195.3744 0002801  97.3362 262.8154 14.36440927456248
IRIDIUM 44              
1 25078U 97077B   25272.96749383  .00000835  00000+0  25715-3 0  9997
2 25078  86.4034 177.0688 0003811  66.1583 294.0015 14.40335566458788
IRIDIUM 45              
1 25104U 97082A   25272.64553477  .00038210  00000+0  12392-2 0  9999
2 25104  86.3616 357.0337 0105736 299.4100  59.6623 15.26463263467959
IRIDIUM 24              
1 25105U 97082B   25273.08288726  .00001224  00000+0  36537-3 0  9994
2 25105  86.3930  35.7791 0013456  91.6576 268.6166 14.42211392458336
IRIDIUM 51              
1 25262U 98018A   25272.75510680  .00113979  00000+0  19178-2 0  9990
2 25262  86.3846   3.7699 0072095 205.2612 154.5116 15.48392838463152
IRIDIUM 57              
1 25273U 98019B   25273.04895242  .00000637  00000+0  21288-3 0  9998
2 25273  86.3905 101.3110 0002217  89.3026 270.8425 14.35961825439838
